STARLINK-3526           
1 51720U 22016G   22230.91667824  .00057610  00000+0  36099-2 0  9995
2 51720  53.2167  39.5326 0001674  50.1572 117.7651 15.08825024 28415
STARLINK-3524           
1 51721U 22016H   22230.91667824  .00055288  00000+0  34662-2 0  9999
2 51721  53.2182  39.5509 0001545  48.3188  79.5711 15.08825689 28481
STARLINK-3535           
1 51722U 22016J   22230.91667824  .00043243  00000+0  27198-2 0  9994
2 51722  53.2175  39.5315 0001583  53.9287 154.1196 15.08822543 28419
STARLINK-3531           
1 51723U 22016K   22230.91667824 -.00113926  00000+0 -69754-3 0  9998
2 51723  53.2208 333.4107 0008616 290.6739 267.6686 15.76789420 29391
STARLINK-3529           
1 51724U 22016L   22230.91667824  .00011365  00000+0  73077-3 0  9994
2 51724  53.2174  39.5342 0001695  48.0690 199.9039 15.08851459 28418
STARLINK-3522           
1 51725U 22016M   22231.25001157 -.00039247  00000+0 -24606-2 0  9998
2 51725  53.2173  38.0398 0001464  63.0448 136.5607 15.08851344 28539
STARLINK-3527           
1 51726U 22016N   22230.91667824  .00008643  00000+0  56049-3 0  9991
2 51726  53.2190  29.5331 0001743  46.2034 336.7980 15.08839826 28567
STARLINK-3532           
1 51727U 22016P   22230.91667824  .00045158  00000+0  28385-2 0  9995
2 51727  53.2164  39.5331 0001513  49.7865 178.2540 15.08825273 28411
STARLINK-3448           
1 51728U 22016Q   22231.25001157 -.00010979  00000+0 -67286-3 0  9994
2 51728  53.2183  28.0310 0001462  59.6065  15.0360 15.08834375 28688
STARLINK-3523           
1 51729U 22016R   22230.91667824  .00013662  00000+0  87480-3 0  9994
2 51729  53.2184  29.5283 0001636  49.2346 313.7893 15.08839681 28623
STARLINK-3530           
1 51730U 22016S   22230.91667824  .00048903  00000+0  30720-2 0  9996
2 51730  53.2183  29.5415 0001484  50.1417  52.8591 15.08810571 28568
STARLINK-3514           
1 51731U 22016T   22230.91667824  .00004269  00000+0  28607-3 0  9996
2 51731  53.2184  29.5322 0001551  54.4195 348.5885 15.08846605 28616
STARLINK-3518           
1 51732U 22016U   22230.91667824  .00050236  00000+0  31539-2 0  9999
2 51732  53.2176  29.5481 0001469  55.4269  67.6097 15.08819829 28639
STARLINK-3525           
1 51733U 22016V   22230.91667824  .00028775  00000+0  18190-2 0  9991
2 51733  53.2182  29.5302 0001530  47.1142  35.8986 15.08833433 28569
STARLINK-3450           
1 51734U 22016W   22230.91667824  .00057747  00000+0  36202-2 0  9997
2 51734  53.2178  29.5344 0001549  53.3688 129.6047 15.08806654 28605
STARLINK-3517           
1 51735U 22016X   22230.91667824  .00025592  00000+0  16203-2 0  9990
2 51735  53.2190  29.5451 0001505  60.5434  82.4501 15.08837859 28613
STARLINK-3447           
1 51736U 22016Y   22230.91667824  .00019597  00000+0  12462-2 0  9992
2 51736  53.2176  29.5308 0001600  54.5410 168.4603 15.08832692 28621
