[{"OBJECT_NAME":"STARLINK-3526","OBJECT_ID":"2022-016G","EPOCH":"2022-08-18T22:00:00.999936","MEAN_MOTION":15.08825024,"ECCENTRICITY":0.0001674,"INCLINATION":53.2167,"RA_OF_ASC_NODE":39.5326,"ARG_OF_PERICENTER":50.1572,"MEAN_ANOMALY":117.7651,"EPHEMERIS_TYPE":0,"CLASSIFICATION_TYPE":"U","NORAD_CAT_ID":51720,"ELEMENT_SET_NO":999,"REV_AT_EPOCH":2841,"BSTAR":0.0036099,"MEAN_MOTION_DOT":0.0005761,"MEAN_MOTION_DDOT":0},{"OBJECT_NAME":"STARLINK-3524","OBJECT_ID":"2022-016H","EPOCH":"2022-08-18T22:00:00.999936","MEAN_MOTION":15.08825689,"ECCENTRICITY":0.0001545,"INCLINATION":53.2182,"RA_OF_ASC_NODE":39.5509,"ARG_OF_PERICENTER":48.3188,"MEAN_ANOMALY":79.5711,"EPHEMERIS_TYPE":0,"CLASSIFICATION_TYPE":"U","NORAD_CAT_ID":51721,"ELEMENT_SET_NO":999,"REV_AT_EPOCH":2848,"BSTAR":0.0034662,"MEAN_MOTION_DOT":0.00055288,"MEAN_MOTION_DDOT":0},{"OBJECT_NAME":"STARLINK-3535","OBJECT_ID":"2022-016J","EPOCH":"2022-08-18T22:00:00.999936","MEAN_MOTION":15.08822543,"ECCENTRICITY":0.0001583,"INCLINATION":53.2175,"RA_OF_ASC_NODE":39.5315,"ARG_OF_PERICENTER":53.9287,"MEAN_ANOMALY":154.1196,"EPHEMERIS_TYPE":0,"CLASSIFICATION_TYPE":"U","NORAD_CAT_ID":51722,"ELEMENT_SET_NO":999,"REV_AT_EPOCH":2841,"BSTAR":0.0027198,"MEAN_MOTION_DOT":0.00043243,"MEAN_MOTION_DDOT":0},{"OBJECT_NAME":"STARLINK-3531","OBJECT_ID":"2022-016K","EPOCH":"2022-08-18T22:00:00.999936","MEAN_MOTION":15.7678942,"ECCENTRICITY":0.0008616,"INCLINATION":53.2208,"RA_OF_ASC_NODE":333.4107,"ARG_OF_PERICENTER":290.6739,"MEAN_ANOMALY":267.6686,"EPHEMERIS_TYPE":0,"CLASSIFICATION_TYPE":"U","NORAD_CAT_ID":51723,"ELEMENT_SET_NO":999,"REV_AT_EPOCH":2939,"BSTAR":-0.00069754,"MEAN_MOTION_DOT":-0.00113926,"MEAN_MOTION_DDOT":0},{"OBJECT_NAME":"STARLINK-3529","OBJECT_ID":"2022-016L","EPOCH":"2022-08-18T22:00:00.999936","MEAN_MOTION":15.08851459,"ECCENTRICITY":0.0001695,"INCLINATION":53.2174,"RA_OF_ASC_NODE":39.5342,"ARG_OF_PERICENTER":48.069,"MEAN_ANOMALY":199.9039,"EPHEMERIS_TYPE":0,"CLASSIFICATION_TYPE":"U","NORAD_CAT_ID":51724,"ELEMENT_SET_NO":999,"REV_AT_EPOCH":2841,"BSTAR":0.00073077,"MEAN_MOTION_DOT":0.00011365,"MEAN_MOTION_DDOT":0},{"OBJECT_NAME":"STARLINK-3522","OBJECT_ID":"2022-016M","EPOCH":"2022-08-19T06:00:00.999648","MEAN_MOTION":15.08851344,"ECCENTRICITY":0.0001464,"INCLINATION":53.2173,"RA_OF_ASC_NODE":38.0398,"ARG_OF_PERICENTER":63.0448,"MEAN_ANOMALY":136.5607,"EPHEMERIS_TYPE":0,"CLASSIFICATION_TYPE":"U","NORAD_CAT_ID":51725,"ELEMENT_SET_NO":999,"REV_AT_EPOCH":2853,"BSTAR":-0.0024606,"MEAN_MOTION_DOT":-0.00039247,"MEAN_MOTION_DDOT":0},{"OBJECT_NAME":"STARLINK-3527","OBJECT_ID":"2022-016N","EPOCH":"2022-08-18T22:00:00.999936","MEAN_MOTION":15.08839826,"ECCENTRICITY":0.0001743,"INCLINATION":53.219,"RA_OF_ASC_NODE":29.5331,"ARG_OF_PERICENTER":46.2034,"MEAN_ANOMALY":336.798,"EPHEMERIS_TYPE":0,"CLASSIFICATION_TYPE":"U","NORAD_CAT_ID":51726,"ELEMENT_SET_NO":999,"REV_AT_EPOCH":2856,"BSTAR":0.00056049,"MEAN_MOTION_DOT":8.643e-5,"MEAN_MOTION_DDOT":0},{"OBJECT_NAME":"STARLINK-3532","OBJECT_ID":"2022-016P","EPOCH":"2022-08-18T22:00:00.999936","MEAN_MOTION":15.08825273,"ECCENTRICITY":0.0001513,"INCLINATION":53.2164,"RA_OF_ASC_NODE":39.5331,"ARG_OF_PERICENTER":49.7865,"MEAN_ANOMALY":178.254,"EPHEMERIS_TYPE":0,"CLASSIFICATION_TYPE":"U","NORAD_CAT_ID":51727,"ELEMENT_SET_NO":999,"REV_AT_EPOCH":2841,"BSTAR":0.0028385,"MEAN_MOTION_DOT":0.00045158,"MEAN_MOTION_DDOT":0},{"OBJECT_NAME":"STARLINK-3448","OBJECT_ID":"2022-016Q","EPOCH":"2022-08-19T06:00:00.999648","MEAN_MOTION":15.08834375,"ECCENTRICITY":0.0001462,"INCLINATION":53.2183,"RA_OF_ASC_NODE":28.031,"ARG_OF_PERICENTER":59.6065,"MEAN_ANOMALY":15.036,"EPHEMERIS_TYPE":0,"CLASSIFICATION_TYPE":"U","NORAD_CAT_ID":51728,"ELEMENT_SET_NO":999,"REV_AT_EPOCH":2868,"BSTAR":-0.00067286,"MEAN_MOTION_DOT":-0.00010979,"MEAN_MOTION_DDOT":0},{"OBJECT_NAME":"STARLINK-3523","OBJECT_ID":"2022-016R","EPOCH":"2022-08-18T22:00:00.999936","MEAN_MOTION":15.08839681,"ECCENTRICITY":0.0001636,"INCLINATION":53.2184,"RA_OF_ASC_NODE":29.5283,"ARG_OF_PERICENTER":49.2346,"MEAN_ANOMALY":313.7893,"EPHEMERIS_TYPE":0,"CLASSIFICATION_TYPE":"U","NORAD_CAT_ID":51729,"ELEMENT_SET_NO":999,"REV_AT_EPOCH":2862,"BSTAR":0.0008748,"MEAN_MOTION_DOT":0.00013662,"MEAN_MOTION_DDOT":0},{"OBJECT_NAME":"STARLINK-3530","OBJECT_ID":"2022-016S","EPOCH":"2022-08-18T22:00:00.999936","MEAN_MOTION":15.08810571,"ECCENTRICITY":0.0001484,"INCLINATION":53.2183,"RA_OF_ASC_NODE":29.5415,"ARG_OF_PERICENTER":50.1417,"MEAN_ANOMALY":52.8591,"EPHEMERIS_TYPE":0,"CLASSIFICATION_TYPE":"U","NORAD_CAT_ID":51730,"ELEMENT_SET_NO":999,"REV_AT_EPOCH":2856,"BSTAR":0.003072,"MEAN_MOTION_DOT":0.00048903,"MEAN_MOTION_DDOT":0},{"OBJECT_NAME":"STARLINK-3514","OBJECT_ID":"2022-016T","EPOCH":"2022-08-18T22:00:00.999936","MEAN_MOTION":15.08846605,"ECCENTRICITY":0.0001551,"INCLINATION":53.2184,"RA_OF_ASC_NODE":29.5322,"ARG_OF_PERICENTER":54.4195,"MEAN_ANOMALY":348.5885,"EPHEMERIS_TYPE":0,"CLASSIFICATION_TYPE":"U","NORAD_CAT_ID":51731,"ELEMENT_SET_NO":999,"REV_AT_EPOCH":2861,"BSTAR":0.00028607,"MEAN_MOTION_DOT":4.269e-5,"MEAN_MOTION_DDOT":0},{"OBJECT_NAME":"STARLINK-3518","OBJECT_ID":"2022-016U","EPOCH":"2022-08-18T22:00:00.999936","MEAN_MOTION":15.08819829,"ECCENTRICITY":0.0001469,"INCLINATION":53.2176,"RA_OF_ASC_NODE":29.5481,"ARG_OF_PERICENTER":55.4269,"MEAN_ANOMALY":67.6097,"EPHEMERIS_TYPE":0,"CLASSIFICATION_TYPE":"U","NORAD_CAT_ID":51732,"ELEMENT_SET_NO":999,"REV_AT_EPOCH":2863,"BSTAR":0.0031539,"MEAN_MOTION_DOT":0.00050236,"MEAN_MOTION_DDOT":0},{"OBJECT_NAME":"STARLINK-3525","OBJECT_ID":"2022-016V","EPOCH":"2022-08-18T22:00:00.999936","MEAN_MOTION":15.08833433,"ECCENTRICITY":0.000153,"INCLINATION":53.2182,"RA_OF_ASC_NODE":29.5302,"ARG_OF_PERICENTER":47.1142,"MEAN_ANOMALY":35.8986,"EPHEMERIS_TYPE":0,"CLASSIFICATION_TYPE":"U","NORAD_CAT_ID":51733,"ELEMENT_SET_NO":999,"REV_AT_EPOCH":2856,"BSTAR":0.001819,"MEAN_MOTION_DOT":0.00028775,"MEAN_MOTION_DDOT":0},{"OBJECT_NAME":"STARLINK-3450","OBJECT_ID":"2022-016W","EPOCH":"2022-08-18T22:00:00.999936","MEAN_MOTION":15.08806654,"ECCENTRICITY":0.0001549,"INCLINATION":53.2178,"RA_OF_ASC_NODE":29.5344,"ARG_OF_PERICENTER":53.3688,"MEAN_ANOMALY":129.6047,"EPHEMERIS_TYPE":0,"CLASSIFICATION_TYPE":"U","NORAD_CAT_ID":51734,"ELEMENT_SET_NO":999,"REV_AT_EPOCH":2860,"BSTAR":0.0036202,"MEAN_MOTION_DOT":0.00057747,"MEAN_MOTION_DDOT":0},{"OBJECT_NAME":"STARLINK-3517","OBJECT_ID":"2022-016X","EPOCH":"2022-08-18T22:00:00.999936","MEAN_MOTION":15.08837859,"ECCENTRICITY":0.0001505,"INCLINATION":53.219,"RA_OF_ASC_NODE":29.5451,"ARG_OF_PERICENTER":60.5434,"MEAN_ANOMALY":82.4501,"EPHEMERIS_TYPE":0,"CLASSIFICATION_TYPE":"U","NORAD_CAT_ID":51735,"ELEMENT_SET_NO":999,"REV_AT_EPOCH":2861,"BSTAR":0.0016203,"MEAN_MOTION_DOT":0.00025592,"MEAN_MOTION_DDOT":0},{"OBJECT_NAME":"STARLINK-3447","OBJECT_ID":"2022-016Y","EPOCH":"2022-08-18T22:00:00.999936","MEAN_MOTION":15.08832692,"ECCENTRICITY":0.00016,"INCLINATION":53.2176,"RA_OF_ASC_NODE":29.5308,"ARG_OF_PERICENTER":54.541,"MEAN_ANOMALY":168.4603,"EPHEMERIS_TYPE":0,"CLASSIFICATION_TYPE":"U","NORAD_CAT_ID":51736,"ELEMENT_SET_NO":999,"REV_AT_EPOCH":2862,"BSTAR":0.0012462,"MEAN_MOTION_DOT":0.00019597,"MEAN_MOTION_DDOT":0}]